FENGYUN 1C DEB          
1 31270U 99025BNC 17345.68104738  .00001223  00000-0  26915-3 0  9999
2 31270  98.9797 254.8144 0135055  90.2561 271.4110 14.54038435566341
